[{"OBJECT_NAME":"STARLINK-32322","OBJECT_ID":"2024-196P","EPOCH":"2026-03-09T07:22:37.530912","MEAN_MOTION":15.30193314,"ECCENTRICITY":0.00012425,"INCLINATION":53.1608,"RA_OF_ASC_NODE":103.429,"ARG_OF_PERICENTER":88.385,"MEAN_ANOMALY":271.7293,"EPHEMERIS_TYPE":0,"CLASSIFICATION_TYPE":"U","NORAD_CAT_ID":61720,"ELEMENT_SET_NO":999,"REV_AT_EPOCH":7709,"BSTAR":3.428676e-5,"MEAN_MOTION_DOT":6.56e-6,"MEAN_MOTION_DDOT":0},{"OBJECT_NAME":"ARIANE 40 R\/B","OBJECT_ID":"1999-064C","EPOCH":"2026-03-09T18:24:37.025280","MEAN_MOTION":15.31364882,"ECCENTRICITY":0.00050095,"INCLINATION":98.1631,"RA_OF_ASC_NODE":150.8872,"ARG_OF_PERICENTER":91.4057,"MEAN_ANOMALY":268.7755,"EPHEMERIS_TYPE":0,"CLASSIFICATION_TYPE":"U","NORAD_CAT_ID":25979,"ELEMENT_SET_NO":999,"REV_AT_EPOCH":42869,"BSTAR":0.00066758353,"MEAN_MOTION_DOT":0.00020173,"MEAN_MOTION_DDOT":0}]
